ONEWEB-0612             
1 54675U 22166AK  23308.90635625  .00000346  00000+0  80523-3 0  9999
2 54675  87.9225  74.1393 0002100 101.9996 258.1374 13.21823997 45236
ONEWEB-0615             
1 54676U 22166AL  23308.88742049 -.00000061  00000+0 -17978-3 0  9996
2 54676  87.9238  74.1587 0001937  92.3439 267.7917 13.21823627 45248
ONEWEB-0655             
1 54677U 22166AM  23308.86061881 -.00000029  00000+0 -10073-3 0  9996
2 54677  87.9231  74.1690 0002110  92.3210 267.8166 13.21821975 45238
ONEWEB-0659             
1 54678U 22166AN  23308.87794387 -.00002888  00000+0 -70250-2 0  9999
2 54678  87.9207  74.1877 0001614  94.8579 265.2739 13.21840390 45322
ONEWEB-0685             
1 54679U 22166AP  23308.87951991 -.00000100  00000+0 -27396-3 0  9995
2 54679  87.9236  74.1591 0002495  93.0059 267.1360 13.21829066 45216
ONEWEB-0712             
1 54680U 22166AQ  23308.80938985 -.00000038  00000+0 -13346-3 0  9998
2 54680  87.9223  58.8952 0000967  92.3249 267.7993 13.16594581 46347
ONEWEB-0714             
1 54681U 22166AR  23308.88583292 -.00000043  00000+0 -13547-3 0  9993
2 54681  87.9230  74.1465 0001937  93.8396 266.2959 13.21824786 45336
ONEWEB-0532             
1 55140U 23004A   23308.75545175  .00000096  00000+0  21530-3 0  9997
2 55140  87.9247 195.7617 0001811 104.4159 255.7173 13.17647187 41768
